SAUDISAT 5A             
1 43831U 18102A   26198.74332594  .00002727  00000+0  10137-3 0  9996
2 43831  97.3047 259.7383 0010203  35.5914 324.6005 15.28335487420340
SAUDISAT 5B             
1 43833U 18102C   26198.69172837  .00002604  00000+0  96185-4 0  9996
2 43833  97.3157 262.8127 0010994  37.1178 323.0820 15.28577533420452
GAOFEN-10R              
1 44622U 19066A   26198.71768170  .00000535  00000+0  72505-4 0  9998
2 44622  98.0510 152.5216 0006741  46.1529 314.0240 14.83060093366902
CARTOSAT-3              
1 44804U 19081A   26198.71801586  .00001675  00000+0  82724-4 0  9996
2 44804  97.4285 260.0908 0012817  50.8077 309.4294 15.19193118368106
GAOFEN-12 01            
1 44819U 19082A   26198.69679108  .00000137  00000+0  24477-4 0  9996
2 44819  97.8110 204.2722 0000848  58.4766 301.6529 14.80480541358602
CSG-1                   
1 44873U 19092A   26198.70114600  .00000151  00000+0  25497-4 0  9999
2 44873  97.8897  21.8631 0001431  94.3397 265.7980 14.82157950355991
NEMO-HD                 
1 46277U 20061F   26198.70200213  .00006146  00000+0  13148-3 0  9992
2 46277  97.1897 260.3563 0001015 104.6588 255.4774 15.45170145326696
SENTINEL-6A             
1 46984U 20086A   26198.37894563 -.00000044  00000+0  75776-4 0  9992
2 46984  66.0412  72.3448 0007778 269.7224  90.2900 12.80930187264192
CAS500-1                
1 47932U 21022A   26198.73733927  .00002957  00000+0  13984-3 0  9999
2 47932  97.3859  93.3663 0005452 162.3895 197.7530 15.20146847295408
GAOFEN-12 02            
1 48079U 21026A   26198.71113681  .00000125  00000+0  23372-4 0  9991
2 48079  97.9936 196.7692 0005966 125.5711 234.6057 14.80316969286270
PLEIADES NEO 3          
1 48268U 21034A   26198.71029156  .00001102  00000+0  14667-3 0  9995
2 48268  97.8940 273.0379 0001389  93.8927 266.2444 14.81673061282172
PLEIADES NEO 4          
1 49070U 21073E   26198.67651476  .00000211  00000+0  33480-4 0  9996
2 49070  97.8938 273.0006 0001317  93.0731 267.0633 14.81673942265880
LANDSAT 9               
1 49260U 21088A   26198.20529164  .00000154  00000+0  44380-4 0  9997
2 49260  98.2269 268.0173 0001118  89.7332 270.3994 14.57096328255370
CSG-2                   
1 51444U 22008A   26198.73487919 -.00001250  00000+0 -15042-3 0  9998
2 51444  97.8890  21.8899 0001611  91.0346 269.1051 14.82174678241111
GAOFEN-12 03            
1 52912U 22069A   26198.67865389  .00000051  00000+0  13344-4 0  9990
2 52912  97.8239  85.7750 0002381  69.6315 290.5153 14.80077339219127
SWOT                    
1 54754U 22173A   26198.71356255 -.00000040  00000+0 -25561-4 0  9998
2 54754  77.6113 354.0982 0000235  68.2781 291.8395 14.00172455183429
PARS 1                  
1 59065U 24039Q   26198.73455398  .00006400  00000+0  13149-3 0  9993
2 59065  97.4844 180.6337 0009462  18.6534 341.5060 15.46323125133366
RESURS-P 4              
1 59371U 24061A   26198.76166034  .00001525  00000+0  51341-4 0  9997
2 59371  97.2760 146.1332 0003224  85.6261 274.5349 15.32288424128449
LEGION 1                
1 59625U 24081A   26198.63990473  .00001715  00000+0  90559-4 0  9994
2 59625  97.5010 276.1740 0007759 259.4730 100.5629 15.16852597122159
LEGION 2                
1 59626U 24081B   26198.67032632  .00001818  00000+0  95818-4 0  9990
2 59626  97.5011 276.3008 0010395 223.9696 136.0711 15.16831965122160
ALOS-4 (DAICHI-4)       
1 60182U 24123A   26198.72857557  .00000657  00000+0  94797-4 0  9998
2 60182  97.9221 295.4661 0001555  97.6614 262.4774 14.79473728110399
LEGION 3                
1 60452U 24146A   26198.57746405  .00001125  00000+0  71794-4 0  9998
2 60452  45.0016 227.6193 0007984 346.9985  13.0687 15.15662602106632
LEGION 4                
1 60453U 24146B   26198.70897959  .00001521  00000+0  92182-4 0  9999
2 60453  45.0026 318.7820 0009073 129.3485 230.8199 15.15690847105506
SENTINEL-2C             
1 60989U 24157A   26198.66207226  .00000045  00000+0  33967-4 0  9998
2 60989  98.5683 273.0113 0001010 105.0906 255.0389 14.30816110 97343
BIOMASS                 
1 63772U 25090A   26198.44550091  .00000233  00000+0  49485-4 0  9996
2 63772  98.0751  25.3200 0001475  92.4188 267.7185 14.67536496 65129
GOSAT-GW (IBUKI GW)     
1 64694U 25141A   26198.73544314 -.00000007  00000+0  71468-5 0  9997
2 64694  98.0565 135.5563 0001419  84.8794 275.2573 14.67554543 56328
IONOSFERA-M 3           
1 64876U 25155A   26198.72409297  .00000011  00000+0  24739-4 0  9995
2 64876  98.6042 159.8634 0002357 108.7475 251.3958 14.21491076 50741
