OBJECT_NAME,OBJECT_ID,EPOCH,MEAN_MOTION,ECCENTRICITY,INCLINATION,RA_OF_ASC_NODE,ARG_OF_PERICENTER,MEAN_ANOMALY,EPHEMERIS_TYPE,CLASSIFICATION_TYPE,NORAD_CAT_ID,ELEMENT_SET_NO,REV_AT_EPOCH,BSTAR,MEAN_MOTION_DOT,MEAN_MOTION_DDOT
SAUDISAT 5A,2018-102A,2026-07-17T17:50:23.361216,15.28335487,.0010203,97.3047,259.7383,35.5914,324.6005,0,U,43831,999,42034,.10137E-3,.2727E-4,0
SAUDISAT 5B,2018-102C,2026-07-17T16:36:05.331168,15.28577533,.0010994,97.3157,262.8127,37.1178,323.0820,0,U,43833,999,42045,.96185E-4,.2604E-4,0
GAOFEN-10R,2019-066A,2026-07-17T17:13:27.698880,14.83060093,.0006741,98.0510,152.5216,46.1529,314.0240,0,U,44622,999,36690,.72505E-4,.535E-5,0
CARTOSAT-3,2019-081A,2026-07-17T17:13:56.570304,15.19193118,.0012817,97.4285,260.0908,50.8077,309.4294,0,U,44804,999,36810,.82724E-4,.1675E-4,0
GAOFEN-12 01,2019-082A,2026-07-17T16:43:22.749312,14.80480541,.0000848,97.8110,204.2722,58.4766,301.6529,0,U,44819,999,35860,.24477E-4,.137E-5,0
CSG-1,2019-092A,2026-07-17T16:49:39.014400,14.82157950,.0001431,97.8897,21.8631,94.3397,265.7980,0,U,44873,999,35599,.25497E-4,.151E-5,0
NEMO-HD,2020-061F,2026-07-17T16:50:52.984032,15.45170145,.0001015,97.1897,260.3563,104.6588,255.4774,0,U,46277,999,32669,.13148E-3,.6146E-4,0
SENTINEL-6A,2020-086A,2026-07-17T09:05:40.902432,12.80930187,.0007778,66.0412,72.3448,269.7224,90.2900,0,U,46984,999,26419,.75776E-4,-.44E-6,0
CAS500-1,2021-022A,2026-07-17T17:41:46.112928,15.20146847,.0005452,97.3859,93.3663,162.3895,197.7530,0,U,47932,999,29540,.13984E-3,.2957E-4,0
GAOFEN-12 02,2021-026A,2026-07-17T17:04:02.220384,14.80316969,.0005966,97.9936,196.7692,125.5711,234.6057,0,U,48079,999,28627,.23372E-4,.125E-5,0
PLEIADES NEO 3,2021-034A,2026-07-17T17:02:49.190784,14.81673061,.0001389,97.8940,273.0379,93.8927,266.2444,0,U,48268,999,28217,.14667E-3,.1102E-4,0
PLEIADES NEO 4,2021-073E,2026-07-17T16:14:10.875264,14.81673942,.0001317,97.8938,273.0006,93.0731,267.0633,0,U,49070,999,26588,.3348E-4,.211E-5,0
LANDSAT 9,2021-088A,2026-07-17T04:55:37.197696,14.57096328,.0001118,98.2269,268.0173,89.7332,270.3994,0,U,49260,999,25537,.4438E-4,.154E-5,0
CSG-2,2022-008A,2026-07-17T17:38:13.562016,14.82174678,.0001611,97.8890,21.8899,91.0346,269.1051,0,U,51444,999,24111,-.15042E-3,-.125E-4,0
GAOFEN-12 03,2022-069A,2026-07-17T16:17:15.696096,14.80077339,.0002381,97.8239,85.7750,69.6315,290.5153,0,U,52912,999,21912,.13344E-4,.51E-6,0
SWOT,2022-173A,2026-07-17T17:07:31.804320,14.00172455,.0000235,77.6113,354.0982,68.2781,291.8395,0,U,54754,999,18342,-.25561E-4,-.4E-6,0
PARS 1,2024-039Q,2026-07-17T17:37:45.463872,15.46323125,.0009462,97.4844,180.6337,18.6534,341.5060,0,U,59065,999,13336,.13149E-3,.64E-4,0
RESURS-P 4,2024-061A,2026-07-17T18:16:47.453376,15.32288424,.0003224,97.2760,146.1332,85.6261,274.5349,0,U,59371,999,12844,.51341E-4,.1525E-4,0
LEGION 1,2024-081A,2026-07-17T15:21:27.768672,15.16852597,.0007759,97.5010,276.1740,259.4730,100.5629,0,U,59625,999,12215,.90559E-4,.1715E-4,0
LEGION 2,2024-081B,2026-07-17T16:05:16.194048,15.16831965,.0010395,97.5011,276.3008,223.9696,136.0711,0,U,59626,999,12216,.95818E-4,.1818E-4,0
ALOS-4 (DAICHI-4),2024-123A,2026-07-17T17:29:08.929248,14.79473728,.0001555,97.9221,295.4661,97.6614,262.4774,0,U,60182,999,11039,.94797E-4,.657E-5,0
LEGION 3,2024-146A,2026-07-17T13:51:32.893920,15.15662602,.0007984,45.0016,227.6193,346.9985,13.0687,0,U,60452,999,10663,.71794E-4,.1125E-4,0
LEGION 4,2024-146B,2026-07-17T17:00:55.836576,15.15690847,.0009073,45.0026,318.7820,129.3485,230.8199,0,U,60453,999,10550,.92182E-4,.1521E-4,0
SENTINEL-2C,2024-157A,2026-07-17T15:53:23.043264,14.30816110,.000101,98.5683,273.0113,105.0906,255.0389,0,U,60989,999,9734,.33967E-4,.45E-6,0
BIOMASS,2025-090A,2026-07-17T10:41:31.277760,14.67536496,.0001476,98.0751,25.3200,92.4188,267.7185,0,U,63772,999,6512,.49485E-4,.233E-5,0
GOSAT-GW (IBUKI GW),2025-141A,2026-07-17T17:39:02.287296,14.67554543,.0001419,98.0565,135.5563,84.8794,275.2573,0,U,64694,999,5632,.71468E-5,-.7E-7,0
IONOSFERA-M 3,2025-155A,2026-07-17T17:22:41.632608,14.21491076,.0002357,98.6042,159.8634,108.7475,251.3958,0,U,64876,999,5074,.24739E-4,.11E-6,0
